{
  "norad_id": 52703,
  "name": "STARLINK-4020",
  "history": [
    {
      "epoch": "2026-03-28T14:51:49.937472Z",
      "apogee_km": 540.7315080888648,
      "perigee_km": 538.735010731998,
      "latitude_deg": 3.093195195588444e-07,
      "longitude_deg": 0.1590541007853812,
      "height_km": 540.5526183648223,
      "semi_major_axis_km": 6917.870259410431,
      "eccentricity": 0.0001443,
      "inclination_deg": 53.2183,
      "raan_deg": 49.1543,
      "arg_perigee_deg": 85.6143,
      "mean_anomaly_deg": 274.5014,
      "mean_motion_rev_day": 15.08843314
    },
    {
      "epoch": "2026-03-29T03:34:55.008192Z",
      "apogee_km": 540.734337104268,
      "perigee_km": 538.7406056816126,
      "latitude_deg": 7.946236765004407e-06,
      "longitude_deg": 166.48691891743118,
      "height_km": 540.5683144932656,
      "semi_major_axis_km": 6917.87447139294,
      "eccentricity": 0.0001441,
      "inclination_deg": 53.2181,
      "raan_deg": 46.7756,
      "arg_perigee_deg": 86.2712,
      "mean_anomaly_deg": 273.8445,
      "mean_motion_rev_day": 15.08841936
    },
    {
      "epoch": "2026-03-30T03:25:42.042144Z",
      "apogee_km": 540.7144651617318,
      "perigee_km": 538.7650074974335,
      "latitude_deg": 3.216474312481855e-05,
      "longitude_deg": 163.3503259414473,
      "height_km": 540.6332268495619,
      "semi_major_axis_km": 6917.876736329582,
      "eccentricity": 0.0001409,
      "inclination_deg": 53.2182,
      "raan_deg": 42.3143,
      "arg_perigee_deg": 89.869,
      "mean_anomaly_deg": 270.2464,
      "mean_motion_rev_day": 15.08841195
    }
  ]
}